[{"OBJECT_NAME":"STARLINK-36670","OBJECT_ID":"2026-033H","EPOCH":"2026-03-02T20:00:01.999008","MEAN_MOTION":15.82015401,"ECCENTRICITY":0.000195,"INCLINATION":42.998,"RA_OF_ASC_NODE":313.4715,"ARG_OF_PERICENTER":254.2765,"MEAN_ANOMALY":252.9151,"EPHEMERIS_TYPE":0,"CLASSIFICATION_TYPE":"U","NORAD_CAT_ID":67828,"ELEMENT_SET_NO":999,"REV_AT_EPOCH":356,"BSTAR":3.9611e-5,"MEAN_MOTION_DOT":7.815e-5,"MEAN_MOTION_DDOT":0},{"OBJECT_NAME":"STARLINK-36144","OBJECT_ID":"2026-033J","EPOCH":"2026-03-02T20:00:01.999008","MEAN_MOTION":15.81989236,"ECCENTRICITY":0.0001906,"INCLINATION":42.9979,"RA_OF_ASC_NODE":313.4609,"ARG_OF_PERICENTER":258.4387,"MEAN_ANOMALY":253.0314,"EPHEMERIS_TYPE":0,"CLASSIFICATION_TYPE":"U","NORAD_CAT_ID":67829,"ELEMENT_SET_NO":999,"REV_AT_EPOCH":356,"BSTAR":0.00035216,"MEAN_MOTION_DOT":0.00074166,"MEAN_MOTION_DDOT":0},{"OBJECT_NAME":"STARLINK-36611","OBJECT_ID":"2026-033K","EPOCH":"2026-03-02T20:00:01.999008","MEAN_MOTION":15.819954,"ECCENTRICITY":0.0001717,"INCLINATION":42.9977,"RA_OF_ASC_NODE":313.4501,"ARG_OF_PERICENTER":258.6714,"MEAN_ANOMALY":257.0733,"EPHEMERIS_TYPE":0,"CLASSIFICATION_TYPE":"U","NORAD_CAT_ID":67830,"ELEMENT_SET_NO":999,"REV_AT_EPOCH":356,"BSTAR":0.00024876,"MEAN_MOTION_DOT":0.00052112,"MEAN_MOTION_DDOT":0},{"OBJECT_NAME":"STARLINK-36661","OBJECT_ID":"2026-033L","EPOCH":"2026-03-02T20:00:01.999008","MEAN_MOTION":15.81981705,"ECCENTRICITY":0.0001746,"INCLINATION":42.9979,"RA_OF_ASC_NODE":313.4392,"ARG_OF_PERICENTER":283.9794,"MEAN_ANOMALY":236.0517,"EPHEMERIS_TYPE":0,"CLASSIFICATION_TYPE":"U","NORAD_CAT_ID":67831,"ELEMENT_SET_NO":999,"REV_AT_EPOCH":356,"BSTAR":0.00026851,"MEAN_MOTION_DOT":0.00056284,"MEAN_MOTION_DDOT":0},{"OBJECT_NAME":"STARLINK-36662","OBJECT_ID":"2026-033M","EPOCH":"2026-03-02T20:00:01.999008","MEAN_MOTION":15.84421084,"ECCENTRICITY":0.0001867,"INCLINATION":42.9965,"RA_OF_ASC_NODE":312.694,"ARG_OF_PERICENTER":269.2203,"MEAN_ANOMALY":185.9245,"EPHEMERIS_TYPE":0,"CLASSIFICATION_TYPE":"U","NORAD_CAT_ID":67832,"ELEMENT_SET_NO":999,"REV_AT_EPOCH":356,"BSTAR":4.2265e-5,"MEAN_MOTION_DOT":9.429e-5,"MEAN_MOTION_DDOT":0},{"OBJECT_NAME":"STARLINK-36659","OBJECT_ID":"2026-033N","EPOCH":"2026-03-02T20:00:01.999008","MEAN_MOTION":15.8195247,"ECCENTRICITY":0.0001565,"INCLINATION":42.9978,"RA_OF_ASC_NODE":313.4292,"ARG_OF_PERICENTER":267.7783,"MEAN_ANOMALY":256.521,"EPHEMERIS_TYPE":0,"CLASSIFICATION_TYPE":"U","NORAD_CAT_ID":67833,"ELEMENT_SET_NO":999,"REV_AT_EPOCH":356,"BSTAR":0.001221,"MEAN_MOTION_DOT":0.00263769,"MEAN_MOTION_DDOT":0},{"OBJECT_NAME":"STARLINK-36655","OBJECT_ID":"2026-033P","EPOCH":"2026-03-02T20:00:01.999008","MEAN_MOTION":15.82011233,"ECCENTRICITY":0.0001669,"INCLINATION":42.9976,"RA_OF_ASC_NODE":313.4181,"ARG_OF_PERICENTER":266.0122,"MEAN_ANOMALY":262.544,"EPHEMERIS_TYPE":0,"CLASSIFICATION_TYPE":"U","NORAD_CAT_ID":67834,"ELEMENT_SET_NO":999,"REV_AT_EPOCH":356,"BSTAR":7.4919e-5,"MEAN_MOTION_DOT":0.00015266,"MEAN_MOTION_DDOT":0},{"OBJECT_NAME":"STARLINK-36657","OBJECT_ID":"2026-033Q","EPOCH":"2026-03-02T20:00:01.999008","MEAN_MOTION":15.81989168,"ECCENTRICITY":0.0001768,"INCLINATION":42.9978,"RA_OF_ASC_NODE":313.4072,"ARG_OF_PERICENTER":274.171,"MEAN_ANOMALY":258.672,"EPHEMERIS_TYPE":0,"CLASSIFICATION_TYPE":"U","NORAD_CAT_ID":67835,"ELEMENT_SET_NO":999,"REV_AT_EPOCH":356,"BSTAR":0.00028743,"MEAN_MOTION_DOT":0.00060336,"MEAN_MOTION_DDOT":0},{"OBJECT_NAME":"STARLINK-36650","OBJECT_ID":"2026-033R","EPOCH":"2026-03-02T20:00:01.999008","MEAN_MOTION":15.81987526,"ECCENTRICITY":0.0001685,"INCLINATION":42.9976,"RA_OF_ASC_NODE":313.3967,"ARG_OF_PERICENTER":269.8559,"MEAN_ANOMALY":267.2561,"EPHEMERIS_TYPE":0,"CLASSIFICATION_TYPE":"U","NORAD_CAT_ID":67836,"ELEMENT_SET_NO":999,"REV_AT_EPOCH":356,"BSTAR":0.00026186,"MEAN_MOTION_DOT":0.00054882,"MEAN_MOTION_DDOT":0},{"OBJECT_NAME":"STARLINK-36649","OBJECT_ID":"2026-033S","EPOCH":"2026-03-02T20:00:01.999008","MEAN_MOTION":15.81988672,"ECCENTRICITY":0.0001823,"INCLINATION":42.9979,"RA_OF_ASC_NODE":313.386,"ARG_OF_PERICENTER":277.3065,"MEAN_ANOMALY":264.0859,"EPHEMERIS_TYPE":0,"CLASSIFICATION_TYPE":"U","NORAD_CAT_ID":67837,"ELEMENT_SET_NO":999,"REV_AT_EPOCH":356,"BSTAR":0.00022043,"MEAN_MOTION_DOT":0.00046069,"MEAN_MOTION_DDOT":0},{"OBJECT_NAME":"STARLINK-36654","OBJECT_ID":"2026-033T","EPOCH":"2026-03-02T20:00:01.999008","MEAN_MOTION":15.82017601,"ECCENTRICITY":0.0001594,"INCLINATION":42.9978,"RA_OF_ASC_NODE":313.3748,"ARG_OF_PERICENTER":262.6089,"MEAN_ANOMALY":283.0462,"EPHEMERIS_TYPE":0,"CLASSIFICATION_TYPE":"U","NORAD_CAT_ID":67838,"ELEMENT_SET_NO":999,"REV_AT_EPOCH":356,"BSTAR":-5.4317e-5,"MEAN_MOTION_DOT":-0.00011955,"MEAN_MOTION_DDOT":0},{"OBJECT_NAME":"STARLINK-36652","OBJECT_ID":"2026-033U","EPOCH":"2026-03-02T20:00:01.999008","MEAN_MOTION":15.82005709,"ECCENTRICITY":0.0001509,"INCLINATION":42.9977,"RA_OF_ASC_NODE":313.3642,"ARG_OF_PERICENTER":265.4453,"MEAN_ANOMALY":284.4766,"EPHEMERIS_TYPE":0,"CLASSIFICATION_TYPE":"U","NORAD_CAT_ID":67839,"ELEMENT_SET_NO":999,"REV_AT_EPOCH":356,"BSTAR":0.00012458,"MEAN_MOTION_DOT":0.00025764,"MEAN_MOTION_DDOT":0},{"OBJECT_NAME":"STARLINK-36651","OBJECT_ID":"2026-033V","EPOCH":"2026-03-02T20:00:01.999008","MEAN_MOTION":15.82023398,"ECCENTRICITY":0.0002122,"INCLINATION":42.9977,"RA_OF_ASC_NODE":313.3537,"ARG_OF_PERICENTER":235.1444,"MEAN_ANOMALY":319.0517,"EPHEMERIS_TYPE":0,"CLASSIFICATION_TYPE":"U","NORAD_CAT_ID":67840,"ELEMENT_SET_NO":999,"REV_AT_EPOCH":356,"BSTAR":-5.0678e-5,"MEAN_MOTION_DOT":-0.00011196,"MEAN_MOTION_DDOT":0},{"OBJECT_NAME":"STARLINK-36656","OBJECT_ID":"2026-033W","EPOCH":"2026-03-02T20:00:01.999008","MEAN_MOTION":15.82020866,"ECCENTRICITY":0.0002309,"INCLINATION":42.9978,"RA_OF_ASC_NODE":313.343,"ARG_OF_PERICENTER":272.75,"MEAN_ANOMALY":285.7223,"EPHEMERIS_TYPE":0,"CLASSIFICATION_TYPE":"U","NORAD_CAT_ID":67841,"ELEMENT_SET_NO":999,"REV_AT_EPOCH":356,"BSTAR":-0.00010281,"MEAN_MOTION_DOT":-0.00022134,"MEAN_MOTION_DDOT":0},{"OBJECT_NAME":"STARLINK-36653","OBJECT_ID":"2026-033X","EPOCH":"2026-03-02T20:00:01.999008","MEAN_MOTION":15.82018254,"ECCENTRICITY":0.0001761,"INCLINATION":42.9977,"RA_OF_ASC_NODE":313.3321,"ARG_OF_PERICENTER":266.2911,"MEAN_ANOMALY":296.4539,"EPHEMERIS_TYPE":0,"CLASSIFICATION_TYPE":"U","NORAD_CAT_ID":67842,"ELEMENT_SET_NO":999,"REV_AT_EPOCH":356,"BSTAR":-8.851e-5,"MEAN_MOTION_DOT":-0.00019132,"MEAN_MOTION_DDOT":0},{"OBJECT_NAME":"STARLINK-36589","OBJECT_ID":"2026-033Y","EPOCH":"2026-03-02T20:00:01.999008","MEAN_MOTION":15.82005392,"ECCENTRICITY":0.0001788,"INCLINATION":42.9982,"RA_OF_ASC_NODE":313.3224,"ARG_OF_PERICENTER":274.5572,"MEAN_ANOMALY":292.4498,"EPHEMERIS_TYPE":0,"CLASSIFICATION_TYPE":"U","NORAD_CAT_ID":67843,"ELEMENT_SET_NO":999,"REV_AT_EPOCH":356,"BSTAR":0.00020805,"MEAN_MOTION_DOT":0.00043474,"MEAN_MOTION_DDOT":0}]
