STARLINK-36670          
1 67828U 26033H   26061.83335647  .00007815  00000+0  39611-4 0  9993
2 67828  42.9980 313.4715 0001950 254.2765 252.9151 15.82015401  3561
STARLINK-36144          
1 67829U 26033J   26061.83335647  .00074166  00000+0  35216-3 0  9993
2 67829  42.9979 313.4609 0001906 258.4387 253.0314 15.81989236  3567
STARLINK-36611          
1 67830U 26033K   26061.83335647  .00052112  00000+0  24876-3 0  9992
2 67830  42.9977 313.4501 0001717 258.6714 257.0733 15.81995400  3563
STARLINK-36661          
1 67831U 26033L   26061.83335647  .00056284  00000+0  26851-3 0  9992
2 67831  42.9979 313.4392 0001746 283.9794 236.0517 15.81981705  3565
STARLINK-36662          
1 67832U 26033M   26061.83335647  .00009429  00000+0  42265-4 0  9990
2 67832  42.9965 312.6940 0001867 269.2203 185.9245 15.84421084  3569
STARLINK-36659          
1 67833U 26033N   26061.83335647  .00263769  00000+0  12210-2 0  9995
2 67833  42.9978 313.4292 0001565 267.7783 256.5210 15.81952470  3566
STARLINK-36655          
1 67834U 26033P   26061.83335647  .00015266  00000+0  74919-4 0  9999
2 67834  42.9976 313.4181 0001669 266.0122 262.5440 15.82011233  3562
STARLINK-36657          
1 67835U 26033Q   26061.83335647  .00060336  00000+0  28743-3 0  9991
2 67835  42.9978 313.4072 0001768 274.1710 258.6720 15.81989168  3564
STARLINK-36650          
1 67836U 26033R   26061.83335647  .00054882  00000+0  26186-3 0  9990
2 67836  42.9976 313.3967 0001685 269.8559 267.2561 15.81987526  3560
STARLINK-36649          
1 67837U 26033S   26061.83335647  .00046069  00000+0  22043-3 0  9997
2 67837  42.9979 313.3860 0001823 277.3065 264.0859 15.81988672  3564
STARLINK-36654          
1 67838U 26033T   26061.83335647 -.00011955  00000+0 -54317-4 0  9996
2 67838  42.9978 313.3748 0001594 262.6089 283.0462 15.82017601  3564
STARLINK-36652          
1 67839U 26033U   26061.83335647  .00025764  00000+0  12458-3 0  9997
2 67839  42.9977 313.3642 0001509 265.4453 284.4766 15.82005709  3567
STARLINK-36651          
1 67840U 26033V   26061.83335647 -.00011196  00000+0 -50678-4 0  9992
2 67840  42.9977 313.3537 0002122 235.1444 319.0517 15.82023398  3561
STARLINK-36656          
1 67841U 26033W   26061.83335647 -.00022134  00000+0 -10281-3 0  9992
2 67841  42.9978 313.3430 0002309 272.7500 285.7223 15.82020866  3562
STARLINK-36653          
1 67842U 26033X   26061.83335647 -.00019132  00000+0 -88510-4 0  9998
2 67842  42.9977 313.3321 0001761 266.2911 296.4539 15.82018254  3563
STARLINK-36589          
1 67843U 26033Y   26061.83335647  .00043474  00000+0  20805-3 0  9995
2 67843  42.9982 313.3224 0001788 274.5572 292.4498 15.82005392  3565
